[{"CCSDS_OMM_VERS":"2.0","COMMENT":"GENERATED VIA SPACE-TRACK.ORG API","CREATION_DATE":"2013-01-05T16:14:09","ORIGINATOR":"18 SPCS","OBJECT_NAME":"GALILEO-FM2","OBJECT_ID":"2011-060B","CENTER_NAME":"EARTH","REF_FRAME":"TEME","TIME_SYSTEM":"UTC","MEAN_ELEMENT_THEORY":"SGP4","EPOCH":"2013-01-05T11:34:48.735263","MEAN_MOTION":"1.70474758","ECCENTRICITY":"0.00031950","INCLINATION":"54.8305","RA_OF_ASC_NODE":"117.3889","ARG_OF_PERICENTER":"257.0563","MEAN_ANOMALY":"102.8942","EPHEMERIS_TYPE":"0","CLASSIFICATION_TYPE":"U","NORAD_CAT_ID":"37847","ELEMENT_SET_NO":"999","REV_AT_EPOCH":"753","BSTAR":"0.00010000000000","MEAN_MOTION_DOT":"0.00000011","MEAN_MOTION_DDOT":"0.0000000000000","SEMIMAJOR_AXIS":"29600.251","PERIOD":"844.699","APOAPSIS":"23231.573","PERIAPSIS":"23212.658","OBJECT_TYPE":"PAYLOAD","RCS_SIZE":"LARGE","COUNTRY_CODE":"ESA","LAUNCH_DATE":"2011-10-21","SITE":"FRGUI","DECAY_DATE":null,"FILE":"1416975","GP_ID":"91844949","TLE_LINE0":"0 GALILEO-FM2","TLE_LINE1":"1 37847U 11060B   13005.48250851  .00000011  00000-0  10000-3 0  9995","TLE_LINE2":"2 37847 054.8305 117.3889 0003195 257.0563 102.8942 01.70474758  7533"},{"CCSDS_OMM_VERS":"2.0","COMMENT":"GENERATED VIA SPACE-TRACK.ORG API","CREATION_DATE":"2013-01-08T08:08:24","ORIGINATOR":"18 SPCS","OBJECT_NAME":"GALILEO-FM2","OBJECT_ID":"2011-060B","CENTER_NAME":"EARTH","REF_FRAME":"TEME","TIME_SYSTEM":"UTC","MEAN_ELEMENT_THEORY":"SGP4","EPOCH":"2013-01-07T19:53:29.367168","MEAN_MOTION":"1.70474769","ECCENTRICITY":"0.00031950","INCLINATION":"54.8313","RA_OF_ASC_NODE":"117.3228","ARG_OF_PERICENTER":"256.4522","MEAN_ANOMALY":"103.4882","EPHEMERIS_TYPE":"0","CLASSIFICATION_TYPE":"U","NORAD_CAT_ID":"37847","ELEMENT_SET_NO":"999","REV_AT_EPOCH":"757","BSTAR":"0.00010000000000","MEAN_MOTION_DOT":"-0.00000009","MEAN_MOTION_DDOT":"0.0000000000000","SEMIMAJOR_AXIS":"29600.249","PERIOD":"844.699","APOAPSIS":"23231.572","PERIAPSIS":"23212.657","OBJECT_TYPE":"PAYLOAD","RCS_SIZE":"LARGE","COUNTRY_CODE":"ESA","LAUNCH_DATE":"2011-10-21","SITE":"FRGUI","DECAY_DATE":null,"FILE":"1418269","GP_ID":"91866625","TLE_LINE0":"0 GALILEO-FM2","TLE_LINE1":"1 37847U 11060B   13007.82881212 -.00000009  00000-0  10000-3 0  9994","TLE_LINE2":"2 37847 054.8313 117.3228 0003195 256.4522 103.4882 01.70474769  7573"},{"CCSDS_OMM_VERS":"2.0","COMMENT":"GENERATED VIA SPACE-TRACK.ORG API","CREATION_DATE":"2013-01-10T00:11:38","ORIGINATOR":"18 SPCS","OBJECT_NAME":"GALILEO-FM2","OBJECT_ID":"2011-060B","CENTER_NAME":"EARTH","REF_FRAME":"TEME","TIME_SYSTEM":"UTC","MEAN_ELEMENT_THEORY":"SGP4","EPOCH":"2013-01-10T04:12:11.386656","MEAN_MOTION":"1.70474758","ECCENTRICITY":"0.00032120","INCLINATION":"54.8321","RA_OF_ASC_NODE":"117.2567","ARG_OF_PERICENTER":"256.5154","MEAN_ANOMALY":"103.4232","EPHEMERIS_TYPE":"0","CLASSIFICATION_TYPE":"U","NORAD_CAT_ID":"37847","ELEMENT_SET_NO":"999","REV_AT_EPOCH":"761","BSTAR":"0.00010000000000","MEAN_MOTION_DOT":"-0.00000021","MEAN_MOTION_DDOT":"0.0000000000000","SEMIMAJOR_AXIS":"29600.251","PERIOD":"844.699","APOAPSIS":"23231.623","PERIAPSIS":"23212.608","OBJECT_TYPE":"PAYLOAD","RCS_SIZE":"LARGE","COUNTRY_CODE":"ESA","LAUNCH_DATE":"2011-10-21","SITE":"FRGUI","DECAY_DATE":null,"FILE":"1419324","GP_ID":"91880343","TLE_LINE0":"0 GALILEO-FM2","TLE_LINE1":"1 37847U 11060B   13010.17513179 -.00000021  00000-0  10000-3 0  9994","TLE_LINE2":"2 37847 054.8321 117.2567 0003212 256.5154 103.4232 01.70474758  7611"},{"CCSDS_OMM_VERS":"2.0","COMMENT":"GENERATED VIA SPACE-TRACK.ORG API","CREATION_DATE":"2013-01-12T23:58:52","ORIGINATOR":"18 SPCS","OBJECT_NAME":"GALILEO-FM2","OBJECT_ID":"2011-060B","CENTER_NAME":"EARTH","REF_FRAME":"TEME","TIME_SYSTEM":"UTC","MEAN_ELEMENT_THEORY":"SGP4","EPOCH":"2013-01-13T02:35:36.499776","MEAN_MOTION":"1.70474728","ECCENTRICITY":"0.00033050","INCLINATION":"54.8335","RA_OF_ASC_NODE":"117.1741","ARG_OF_PERICENTER":"257.3011","MEAN_ANOMALY":"102.6516","EPHEMERIS_TYPE":"0","CLASSIFICATION_TYPE":"U","NORAD_CAT_ID":"37847","ELEMENT_SET_NO":"999","REV_AT_EPOCH":"766","BSTAR":"0.00010000000000","MEAN_MOTION_DOT":"-0.00000018","MEAN_MOTION_DDOT":"0.0000000000000","SEMIMAJOR_AXIS":"29600.254","PERIOD":"844.699","APOAPSIS":"23231.902","PERIAPSIS":"23212.336","OBJECT_TYPE":"PAYLOAD","RCS_SIZE":"LARGE","COUNTRY_CODE":"ESA","LAUNCH_DATE":"2011-10-21","SITE":"FRGUI","DECAY_DATE":null,"FILE":"1421016","GP_ID":"91904837","TLE_LINE0":"0 GALILEO-FM2","TLE_LINE1":"1 37847U 11060B   13013.10806134 -.00000018  00000-0  10000-3 0  9992","TLE_LINE2":"2 37847 054.8335 117.1741 0003305 257.3011 102.6516 01.70474728  7661"},{"CCSDS_OMM_VERS":"2.0","COMMENT":"GENERATED VIA SPACE-TRACK.ORG API","CREATION_DATE":"2013-01-17T11:06:34","ORIGINATOR":"18 SPCS","OBJECT_NAME":"GALILEO-FM2","OBJECT_ID":"2011-060B","CENTER_NAME":"EARTH","REF_FRAME":"TEME","TIME_SYSTEM":"UTC","MEAN_ELEMENT_THEORY":"SGP4","EPOCH":"2013-01-16T15:03:41.981471","MEAN_MOTION":"1.70474718","ECCENTRICITY":"0.00033440","INCLINATION":"54.8345","RA_OF_ASC_NODE":"117.0747","ARG_OF_PERICENTER":"258.6218","MEAN_ANOMALY":"101.3454","EPHEMERIS_TYPE":"0","CLASSIFICATION_TYPE":"U","NORAD_CAT_ID":"37847","ELEMENT_SET_NO":"999","REV_AT_EPOCH":"772","BSTAR":"0.00010000000000","MEAN_MOTION_DOT":"-0.00000022","MEAN_MOTION_DDOT":"0.0000000000000","SEMIMAJOR_AXIS":"29600.255","PERIOD":"844.700","APOAPSIS":"23232.019","PERIAPSIS":"23212.222","OBJECT_TYPE":"PAYLOAD","RCS_SIZE":"LARGE","COUNTRY_CODE":"ESA","LAUNCH_DATE":"2011-10-21","SITE":"FRGUI","DECAY_DATE":null,"FILE":"1423427","GP_ID":"91936872","TLE_LINE0":"0 GALILEO-FM2","TLE_LINE1":"1 37847U 11060B   13016.62756923 -.00000022  00000-0  10000-3 0  9997","TLE_LINE2":"2 37847 054.8345 117.0747 0003344 258.6218 101.3454 01.70474718  7726"},{"CCSDS_OMM_VERS":"2.0","COMMENT":"GENERATED VIA SPACE-TRACK.ORG API","CREATION_DATE":"2013-01-19T08:27:39","ORIGINATOR":"18 SPCS","OBJECT_NAME":"GALILEO-FM2","OBJECT_ID":"2011-060B","CENTER_NAME":"EARTH","REF_FRAME":"TEME","TIME_SYSTEM":"UTC","MEAN_ELEMENT_THEORY":"SGP4","EPOCH":"2013-01-18T09:17:43.672127","MEAN_MOTION":"1.70474634","ECCENTRICITY":"0.00035200","INCLINATION":"54.8353","RA_OF_ASC_NODE":"117.0254","ARG_OF_PERICENTER":"261.5207","MEAN_ANOMALY":"98.4390","EPHEMERIS_TYPE":"0","CLASSIFICATION_TYPE":"U","NORAD_CAT_ID":"37847","ELEMENT_SET_NO":"999","REV_AT_EPOCH":"775","BSTAR":"0.00010000000000","MEAN_MOTION_DOT":"-0.00000030","MEAN_MOTION_DDOT":"0.0000000000000","SEMIMAJOR_AXIS":"29600.265","PERIOD":"844.700","APOAPSIS":"23232.549","PERIAPSIS":"23211.711","OBJECT_TYPE":"PAYLOAD","RCS_SIZE":"LARGE","COUNTRY_CODE":"ESA","LAUNCH_DATE":"2011-10-21","SITE":"FRGUI","DECAY_DATE":null,"FILE":"1424953","GP_ID":"91959656","TLE_LINE0":"0 GALILEO-FM2","TLE_LINE1":"1 37847U 11060B   13018.38731102 -.00000030  00000-0  10000-3 0  9993","TLE_LINE2":"2 37847 054.8353 117.0254 0003520 261.5207 098.4390 01.70474634  7750"},{"CCSDS_OMM_VERS":"2.0","COMMENT":"GENERATED VIA SPACE-TRACK.ORG API","CREATION_DATE":"2013-01-21T15:04:30","ORIGINATOR":"18 SPCS","OBJECT_NAME":"GALILEO-FM2","OBJECT_ID":"2011-060B","CENTER_NAME":"EARTH","REF_FRAME":"TEME","TIME_SYSTEM":"UTC","MEAN_ELEMENT_THEORY":"SGP4","EPOCH":"2013-01-20T17:36:26.024256","MEAN_MOTION":"1.70474621","ECCENTRICITY":"0.00036450","INCLINATION":"54.8361","RA_OF_ASC_NODE":"116.9594","ARG_OF_PERICENTER":"261.8847","MEAN_ANOMALY":"98.0740","EPHEMERIS_TYPE":"0","CLASSIFICATION_TYPE":"U","NORAD_CAT_ID":"37847","ELEMENT_SET_NO":"999","REV_AT_EPOCH":"779","BSTAR":"0.00010000000000","MEAN_MOTION_DOT":"-0.00000036","MEAN_MOTION_DDOT":"0.0000000000000","SEMIMAJOR_AXIS":"29600.267","PERIOD":"844.700","APOAPSIS":"23232.921","PERIAPSIS":"23211.342","OBJECT_TYPE":"PAYLOAD","RCS_SIZE":"LARGE","COUNTRY_CODE":"ESA","LAUNCH_DATE":"2011-10-21","SITE":"FRGUI","DECAY_DATE":null,"FILE":"1425769","GP_ID":"91975785","TLE_LINE0":"0 GALILEO-FM2","TLE_LINE1":"1 37847U 11060B   13020.73363454 -.00000036  00000-0  10000-3 0  9992","TLE_LINE2":"2 37847 054.8361 116.9594 0003645 261.8847 098.0740 01.70474621  7790"},{"CCSDS_OMM_VERS":"2.0","COMMENT":"GENERATED VIA SPACE-TRACK.ORG API","CREATION_DATE":"2013-01-23T16:16:52","ORIGINATOR":"18 SPCS","OBJECT_NAME":"GALILEO-FM2","OBJECT_ID":"2011-060B","CENTER_NAME":"EARTH","REF_FRAME":"TEME","TIME_SYSTEM":"UTC","MEAN_ELEMENT_THEORY":"SGP4","EPOCH":"2013-01-23T15:59:49.606367","MEAN_MOTION":"1.70474612","ECCENTRICITY":"0.00036810","INCLINATION":"54.8372","RA_OF_ASC_NODE":"116.8768","ARG_OF_PERICENTER":"261.6429","MEAN_ANOMALY":"98.3208","EPHEMERIS_TYPE":"0","CLASSIFICATION_TYPE":"U","NORAD_CAT_ID":"37847","ELEMENT_SET_NO":"999","REV_AT_EPOCH":"784","BSTAR":"0.00010000000000","MEAN_MOTION_DOT":"-0.00000029","MEAN_MOTION_DDOT":"0.0000000000000","SEMIMAJOR_AXIS":"29600.268","PERIOD":"844.700","APOAPSIS":"23233.028","PERIAPSIS":"23211.237","OBJECT_TYPE":"PAYLOAD","RCS_SIZE":"LARGE","COUNTRY_CODE":"ESA","LAUNCH_DATE":"2011-10-21","SITE":"FRGUI","DECAY_DATE":null,"FILE":"1427114","GP_ID":"91995628","TLE_LINE0":"0 GALILEO-FM2","TLE_LINE1":"1 37847U 11060B   13023.66654637 -.00000029  00000-0  10000-3 0  9995","TLE_LINE2":"2 37847 054.8372 116.8768 0003681 261.6429 098.3208 01.70474612  7846"}]